[{"OBJECT_NAME":"HULIANWANG DIGUI-72","OBJECT_ID":"2025-178E","EPOCH":"2026-03-09T23:32:40.185024","MEAN_MOTION":13.24420219,"ECCENTRICITY":0.00020134,"INCLINATION":86.4951,"RA_OF_ASC_NODE":46.9721,"ARG_OF_PERICENTER":79.6588,"MEAN_ANOMALY":280.4773,"EPHEMERIS_TYPE":0,"CLASSIFICATION_TYPE":"U","NORAD_CAT_ID":65232,"ELEMENT_SET_NO":999,"REV_AT_EPOCH":2718,"BSTAR":5.7681629e-5,"MEAN_MOTION_DOT":3.9e-7,"MEAN_MOTION_DDOT":0},{"OBJECT_NAME":"DELTA 1 DEB","OBJECT_ID":"1975-052BH","EPOCH":"2026-03-09T09:16:20.667648","MEAN_MOTION":12.73966008,"ECCENTRICITY":0.03729361,"INCLINATION":99.5599,"RA_OF_ASC_NODE":221.8364,"ARG_OF_PERICENTER":86.7544,"MEAN_ANOMALY":331.1745,"EPHEMERIS_TYPE":0,"CLASSIFICATION_TYPE":"U","NORAD_CAT_ID":21339,"ELEMENT_SET_NO":999,"REV_AT_EPOCH":61692,"BSTAR":0.00026279629,"MEAN_MOTION_DOT":4.1e-7,"MEAN_MOTION_DDOT":0}]
